[
    {
        "CCSDS_OMM_VERS": "3.0",
        "COMMENT": "GENERATED VIA SPACE-TRACK.ORG API",
        "CREATION_DATE": "2025-05-04T06:56:20",
        "ORIGINATOR": "18 SPCS",
        "OBJECT_NAME": "GALILEO 16 (26C)",
        "OBJECT_ID": "2016-069B",
        "CENTER_NAME": "EARTH",
        "REF_FRAME": "TEME",
        "TIME_SYSTEM": "UTC",
        "MEAN_ELEMENT_THEORY": "SGP4",
        "EPOCH": "2025-05-03T18:00:33.613056",
        "MEAN_MOTION": "1.70474328",
        "ECCENTRICITY": "0.00045070",
        "INCLINATION": "55.2514",
        "RA_OF_ASC_NODE": "112.4224",
        "ARG_OF_PERICENTER": "330.0035",
        "MEAN_ANOMALY": "29.9566",
        "EPHEMERIS_TYPE": "0",
        "CLASSIFICATION_TYPE": "U",
        "NORAD_CAT_ID": "41860",
        "ELEMENT_SET_NO": "999",
        "REV_AT_EPOCH": "5267",
        "BSTAR": "0.00000000000000",
        "MEAN_MOTION_DOT": "0.00000043",
        "MEAN_MOTION_DDOT": "0.0000000000000",
        "SEMIMAJOR_AXIS": "29600.282",
        "PERIOD": "844.702",
        "APOAPSIS": "23235.488",
        "PERIAPSIS": "23208.806",
        "OBJECT_TYPE": "PAYLOAD",
        "RCS_SIZE": "LARGE",
        "COUNTRY_CODE": "ESA",
        "LAUNCH_DATE": "2016-11-17",
        "SITE": "FRGUI",
        "DECAY_DATE": null,
        "FILE": "4718512",
        "GP_ID": "286818152",
        "TLE_LINE0": "0 GALILEO 16 (26C)",
        "TLE_LINE1": "1 41860U 16069B   25123.75038904  .00000043  00000-0  00000+0 0  9996",
        "TLE_LINE2": "2 41860  55.2514 112.4224 0004507 330.0035  29.9566  1.70474328 52672"
    }
]